STARLINK-11721 [DTC]    
1 64127U 25111E   26191.66340322  .00180435  00000+0  13763-2 0  9997
2 64127  43.0011 312.2520 0002492 285.3928  74.6664 15.70891977 65985
STARLINK-11722 [DTC]    
1 64128U 25111F   26190.41296906  .00179036  00000+0  13698-2 0  9990
2 64128  42.9974 320.0882 0000828 204.4416 155.6413 15.70824605 65734
STARLINK-11679 [DTC]    
1 64129U 25111G   26191.41437832  .00124872  00000+0  95824-3 0  9997
2 64129  42.9996 313.8258 0004931 286.6320  73.4006 15.70923935 65945
STARLINK-11735 [DTC]    
1 64130U 25111H   26190.79978613  .00151970  00000+0  11656-2 0  9995
2 64130  43.0002 317.8305 0001863 279.1125  80.9532 15.70853684 65697
STARLINK-11720 [DTC]    
1 64131U 25111J   26190.65668956  .00128337  00000+0  98474-3 0  9992
2 64131  42.9993 318.4653 0002023 254.4557 105.6088 15.70924925 65779
STARLINK-11718 [DTC]    
1 64132U 25111K   26191.39418021  .00242761  00000+0  18312-2 0  9991
2 64132  42.9986 314.5543 0001918 232.0432 128.0263 15.70962137 65987
STARLINK-11716 [DTC]    
1 64133U 25111L   26191.76946411  .00152616  00000+0  11704-2 0  9999
2 64133  42.9998 312.2026 0001684 290.3363  69.7324 15.70856032 66045
STARLINK-11714 [DTC]    
1 64134U 25111M   26191.34017472  .00157013  00000+0  12001-2 0  9997
2 64134  42.9973 314.1201 0001796 243.0396 117.0288 15.70920702 65939
STARLINK-11712 [DTC]    
1 64135U 25111N   26191.39857544  .00138485  00000+0  10622-2 0  9994
2 64135  43.0009 314.5916 0003378 275.9719  84.0764 15.70894512 65931
STARLINK-34254          
1 64136U 25111P   26191.13655135  .00018096  00000+0  66520-3 0  9993
2 64136  43.0016 106.0482 0001333 261.4237  98.6463 15.27595297 64190
STARLINK-34230          
1 64137U 25111Q   26191.73927628  .00507604  12397-3  77484-3 0  9994
2 64137  42.9790  51.8065 0025044 263.6023  96.2004 16.02920860 64865
STARLINK-34129          
1 64138U 25111R   26191.11099914  .00013231  00000+0  48933-3 0  9994
2 64138  43.0001 106.7131 0001880 268.1667  91.8969 15.27588812 64238
STARLINK-34212          
1 64139U 25111S   26191.14684186  .00012858  00000+0  47587-3 0  9997
2 64139  43.0020 106.1237 0001128  18.5294 341.5599 15.27585100 64195
STARLINK-34149          
1 64140U 25111T   26191.15713458  .00011910  00000+0  44158-3 0  9994
2 64140  43.0074 106.1948 0004580  39.6064 320.5122 15.27578975 64190
STARLINK-34054          
1 64141U 25111U   26191.15455124  .00016166  00000+0  59556-3 0  9994
2 64141  43.0039 106.1772 0001020  10.8441 349.2433 15.27587802 64195
STARLINK-34195          
1 64142U 25111V   26191.14297903  .00014982  00000+0  55266-3 0  9991
2 64142  43.0000 106.0935 0001339 289.9390  70.1317 15.27591866 64195
STARLINK-34133          
1 64143U 25111W   26191.13911340  .00015736  00000+0  57997-3 0  9990
2 64143  43.0023 106.0625 0003462 243.4390 116.6107 15.27586451 64198
STARLINK-34181          
1 64144U 25111X   26189.91862284  .00019301  00000+0  70831-3 0  9990
2 64144  43.0011 113.2433 0001055 279.1440  80.9292 15.27615521 64000
STARLINK-34186          
1 64145U 25111Y   26191.16995946  .00017899  00000+0  65809-3 0  9992
2 64145  43.0031 106.2937 0002291 247.6272 112.4337 15.27593915 64193
STARLINK-34314          
1 64146U 25112A   26191.68329575  .00004612  00000+0  32312-3 0  9992
2 64146  97.2849 240.8359 0001327 114.0318 246.1048 15.05673111 61815
STARLINK-33926          
1 64147U 25112B   26191.12672726  .00004561  00000+0  31965-3 0  9997
2 64147  97.2846 240.3698 0002481 127.0926 233.0529 15.05669318 61739
STARLINK-34213          
1 64148U 25112C   26191.75805345  .00004248  00000+0  29799-3 0  9996
2 64148  97.2868 240.8900 0000444 171.0841 189.0395 15.05669985 61828
STARLINK-33924          
1 64149U 25112D   26190.37073840  .00003120  00000+0  22000-3 0  9997
2 64149  97.2824 239.5601 0001497  99.9788 260.1609 15.05662543 61610
STARLINK-34209          
1 64150U 25112E   26191.11840753  .00000942  00000+0  69153-4 0  9997
2 64150  97.2828 240.3800 0003242 109.5591 250.5987 15.05658910 61735
STARLINK-34338          
1 64151U 25112F   26190.37906095  .00004310  00000+0  30228-3 0  9990
2 64151  97.2830 239.7019 0002427 104.1543 255.9955 15.05666992 61626
STARLINK-34348          
1 64152U 25112G   26191.74143365  .00001626  00000+0  11644-3 0  9994
2 64152  97.2880 240.9116 0000031 162.6686 197.4543 15.05692055 61824
STARLINK-34345          
1 64153U 25112H   26189.60647323  .00002596  00000+0  18372-3 0  9992
2 64153  97.2837 238.9168 0001172 121.9512 238.1830 15.05662720 61507
STARLINK-33945          
1 64154U 25112J   26189.73168899  .00004594  00000+0  32198-3 0  9995
2 64154  97.2817 247.5347 0000941  87.9339 272.1997 15.05660459 62074
STARLINK-34346          
1 64155U 25112K   26191.12118923  .00004922  00000+0  34461-3 0  9995
2 64155  97.2842 240.3831 0001862 105.8028 254.3405 15.05671006 61738
STARLINK-34277          
1 64156U 25112L   26191.75251470 -.00001245  00000+0 -82376-4 0  9996
2 64156  97.2842 240.9061 0001132 111.5933 248.5416 15.05674134 61821
