OBJECT_NAME,OBJECT_ID,EPOCH,MEAN_MOTION,ECCENTRICITY,INCLINATION,RA_OF_ASC_NODE,ARG_OF_PERICENTER,MEAN_ANOMALY,EPHEMERIS_TYPE,CLASSIFICATION_TYPE,NORAD_CAT_ID,ELEMENT_SET_NO,REV_AT_EPOCH,BSTAR,MEAN_MOTION_DOT,MEAN_MOTION_DDOT
STARLINK-11721 [DTC],2025-111E,2026-07-10T15:55:18.038208,15.70891977,.0002492,43.0011,312.2520,285.3928,74.6664,0,U,64127,999,6598,.13763E-2,.180435E-2,0
STARLINK-11722 [DTC],2025-111F,2026-07-09T09:54:40.526784,15.70824605,.00008287,42.9974,320.0882,204.4416,155.6413,0,U,64128,999,6573,.13697982E-2,.179036E-2,0
STARLINK-11679 [DTC],2025-111G,2026-07-10T09:56:42.286848,15.70923935,.00049318,42.9996,313.8258,286.6320,73.4006,0,U,64129,999,6594,.95824335E-3,.124872E-2,0
STARLINK-11735 [DTC],2025-111H,2026-07-09T19:11:41.521632,15.70853684,.00018636,43.0002,317.8305,279.1125,80.9532,0,U,64130,999,6569,.11656127E-2,.15197E-2,0
STARLINK-11720 [DTC],2025-111J,2026-07-09T15:45:37.977984,15.70924925,.00020234,42.9993,318.4653,254.4557,105.6088,0,U,64131,999,6577,.98473794E-3,.128337E-2,0
STARLINK-11718 [DTC],2025-111K,2026-07-10T09:27:37.170144,15.70962137,.00019181,42.9986,314.5543,232.0432,128.0263,0,U,64132,999,6598,.18312417E-2,.242761E-2,0
STARLINK-11716 [DTC],2025-111L,2026-07-10T18:28:01.699104,15.70856032,.0001684,42.9998,312.2026,290.3363,69.7324,0,U,64133,999,6604,.11704E-2,.152616E-2,0
STARLINK-11714 [DTC],2025-111M,2026-07-10T08:09:51.095808,15.70920702,.0001796,42.9973,314.1201,243.0396,117.0288,0,U,64134,999,6593,.12000662E-2,.157013E-2,0
STARLINK-11712 [DTC],2025-111N,2026-07-10T09:33:56.918016,15.70894512,.00033786,43.0009,314.5916,275.9719,84.0764,0,U,64135,999,6593,.10622318E-2,.138485E-2,0
STARLINK-34254,2025-111P,2026-07-10T03:16:38.036640,15.27595297,.00013334,43.0016,106.0482,261.4237,98.6463,0,U,64136,999,6419,.66520299E-3,.18096E-3,0
STARLINK-34230,2025-111Q,2026-07-10T17:44:33.470592,16.02920860,.0025044,42.9790,51.8065,263.6023,96.2004,0,U,64137,999,6486,.77484E-3,.507604E-2,.12397E-3
STARLINK-34129,2025-111R,2026-07-10T02:39:50.325696,15.27588812,.00018806,43.0001,106.7131,268.1667,91.8969,0,U,64138,999,6423,.48932747E-3,.13231E-3,0
STARLINK-34212,2025-111S,2026-07-10T03:31:27.136704,15.27585100,.00011286,43.0020,106.1237,18.5294,341.5599,0,U,64139,999,6419,.47586787E-3,.12858E-3,0
STARLINK-34149,2025-111T,2026-07-10T03:46:16.427712,15.27578975,.00045805,43.0074,106.1948,39.6064,320.5122,0,U,64140,999,6419,.44158388E-3,.1191E-3,0
STARLINK-34054,2025-111U,2026-07-10T03:42:33.227136,15.27587802,.00010207,43.0039,106.1772,10.8441,349.2433,0,U,64141,999,6419,.59555522E-3,.16166E-3,0
STARLINK-34195,2025-111V,2026-07-10T03:25:53.388192,15.27591866,.00013398,43.0000,106.0935,289.9390,70.1317,0,U,64142,999,6419,.55266398E-3,.14982E-3,0
STARLINK-34133,2025-111W,2026-07-10T03:20:19.397760,15.27586451,.00034628,43.0023,106.0625,243.4390,116.6107,0,U,64143,999,6419,.57996652E-3,.15736E-3,0
STARLINK-34181,2025-111X,2026-07-08T22:02:49.013376,15.27615521,.00010555,43.0011,113.2433,279.1440,80.9292,0,U,64144,999,6400,.7083067E-3,.19301E-3,0
STARLINK-34186,2025-111Y,2026-07-10T04:04:44.497344,15.27593915,.00022912,43.0031,106.2937,247.6272,112.4337,0,U,64145,999,6419,.65808711E-3,.17899E-3,0
STARLINK-34314,2025-112A,2026-07-10T16:23:56.752800,15.05673111,.0001327,97.2849,240.8359,114.0318,246.1048,0,U,64146,999,6181,.32312E-3,.4612E-4,0
STARLINK-33926,2025-112B,2026-07-10T03:02:29.235264,15.05669318,.00024816,97.2846,240.3698,127.0926,233.0529,0,U,64147,999,6173,.31965409E-3,.4561E-4,0
STARLINK-34213,2025-112C,2026-07-10T18:11:35.818080,15.05669985,.0000444,97.2868,240.8900,171.0841,189.0395,0,U,64148,999,6182,.29799E-3,.4248E-4,0
STARLINK-33924,2025-112D,2026-07-09T08:53:51.797760,15.05662543,.00014972,97.2824,239.5601,99.9788,260.1609,0,U,64149,999,6161,.22000441E-3,.312E-4,0
STARLINK-34209,2025-112E,2026-07-10T02:50:30.410592,15.05658910,.00032422,97.2828,240.3800,109.5591,250.5987,0,U,64150,999,6173,.69153014E-4,.942E-5,0
STARLINK-34338,2025-112F,2026-07-09T09:05:50.866080,15.05666992,.00024277,97.2830,239.7019,104.1543,255.9955,0,U,64151,999,6162,.30228056E-3,.431E-4,0
STARLINK-34348,2025-112G,2026-07-10T17:47:39.867360,15.05692055,.0000031,97.2880,240.9116,162.6686,197.4543,0,U,64152,999,6182,.11644E-3,.1626E-4,0
STARLINK-34345,2025-112H,2026-07-08T14:33:19.287072,15.05662720,.00011725,97.2837,238.9168,121.9512,238.1830,0,U,64153,999,6150,.18371816E-3,.2596E-4,0
STARLINK-33945,2025-112J,2026-07-08T17:33:37.928736,15.05660459,.00009415,97.2817,247.5347,87.9339,272.1997,0,U,64154,999,6207,.32198455E-3,.4594E-4,0
STARLINK-34346,2025-112K,2026-07-10T02:54:30.749472,15.05671006,.00018624,97.2842,240.3831,105.8028,254.3405,0,U,64155,999,6173,.34460737E-3,.4922E-4,0
STARLINK-34277,2025-112L,2026-07-10T18:03:37.270080,15.05674134,.0001132,97.2842,240.9061,111.5933,248.5416,0,U,64156,999,6182,-.82376E-4,-.1245E-4,0
